[{"OBJECT_NAME":"STARLINK-1502","OBJECT_ID":"2020-038AL","EPOCH":"2026-03-09T16:28:40.129248","MEAN_MOTION":15.47123466,"ECCENTRICITY":0.00027286,"INCLINATION":53.0523,"RA_OF_ASC_NODE":206.0601,"ARG_OF_PERICENTER":10.3487,"MEAN_ANOMALY":349.7575,"EPHEMERIS_TYPE":0,"CLASSIFICATION_TYPE":"U","NORAD_CAT_ID":45764,"ELEMENT_SET_NO":999,"REV_AT_EPOCH":31663,"BSTAR":0.0018007606,"MEAN_MOTION_DOT":0.00093492,"MEAN_MOTION_DDOT":0},{"OBJECT_NAME":"OBJECT B","OBJECT_ID":"2022-158B","EPOCH":"2026-03-09T22:41:40.741152","MEAN_MOTION":15.49759097,"ECCENTRICITY":0.0010727,"INCLINATION":97.4774,"RA_OF_ASC_NODE":189.7942,"ARG_OF_PERICENTER":321.2118,"MEAN_ANOMALY":38.8362,"EPHEMERIS_TYPE":0,"CLASSIFICATION_TYPE":"U","NORAD_CAT_ID":54362,"ELEMENT_SET_NO":999,"REV_AT_EPOCH":18336,"BSTAR":0.0004299082,"MEAN_MOTION_DOT":0.00023884,"MEAN_MOTION_DDOT":0}]
